[{"OBJECT_NAME":"LYNK TOWER 4","OBJECT_ID":"2023-001AB","EPOCH":"2026-03-09T16:15:30.644928","MEAN_MOTION":15.31819885,"ECCENTRICITY":0.00103213,"INCLINATION":97.3324,"RA_OF_ASC_NODE":128.594,"ARG_OF_PERICENTER":112.3386,"MEAN_ANOMALY":247.895,"EPHEMERIS_TYPE":0,"CLASSIFICATION_TYPE":"U","NORAD_CAT_ID":55034,"ELEMENT_SET_NO":999,"REV_AT_EPOCH":17658,"BSTAR":0.00030013829,"MEAN_MOTION_DOT":9.16e-5,"MEAN_MOTION_DDOT":0},{"OBJECT_NAME":"STARLINK-35454","OBJECT_ID":"2025-245C","EPOCH":"2026-03-09T21:12:29.316096","MEAN_MOTION":15.30201576,"ECCENTRICITY":0.00011603,"INCLINATION":53.1571,"RA_OF_ASC_NODE":283.1826,"ARG_OF_PERICENTER":89.586,"MEAN_ANOMALY":270.5273,"EPHEMERIS_TYPE":0,"CLASSIFICATION_TYPE":"U","NORAD_CAT_ID":66236,"ELEMENT_SET_NO":999,"REV_AT_EPOCH":2112,"BSTAR":0.00087154189,"MEAN_MOTION_DOT":0.00025543,"MEAN_MOTION_DDOT":0}]
