LYNK TOWER 4            
1 55034U 23001AB  26068.67743801  .00009160  00000+0  30014-3 0  9997
2 55034  97.3324 128.5940 0010321 112.3386 247.8950 15.31819885176588
STARLINK-35454          
1 66236U 25245C   26068.88367264  .00025543  00000+0  87154-3 0  9993
2 66236  53.1571 283.1826 0001160  89.5860 270.5273 15.30201576 21123
